FENGYUN 1C DEB          
1 36170U 99025DST 17342.75883586  .00000590  00000-0  46595-3 0  9995
2 36170  97.9796 169.9540 0136556 273.9617  84.5945 13.90629051225337
